IRIDIUM 63              
1 25286U 98021B   25130.42586290  .00000510  00000+0  16717-3 0  9990
2 25286  86.3949  97.9741 0002425  84.9312 275.2162 14.36516300418424
IRIDIUM 69              
1 25319U 98026A   25130.41530528  .00000540  00000+0  16222-3 0  9998
2 25319  86.3940 111.3859 0004052 118.5834 241.5773 14.40931888417626
IRIDIUM 71              
1 25320U 98026B   25130.42718284  .00000536  00000+0  16015-3 0  9993
2 25320  86.3938 106.0768 0002142 145.4046 214.7293 14.41126626418152
IRIDIUM 73              
1 25344U 98032C   25130.56435533  .00000743  00000+0  18026-3 0  9998
2 25344  86.4421  62.7917 0002932  93.7296 266.4245 14.51672527425100
IRIDIUM 82              
1 25467U 98051A   25130.45387444  .00032423  00000+0  96698-3 0  9991
2 25467  86.3648 128.2658 0092008  80.5941 280.5694 15.30315067418186
